start=new Date('2023-04-18T00:00:00.000Z').valueOf();
sats=[{"MEAN_MOTION_DOT":"0.00019062","TLE_LINE1":"1 44724U 19074M   23107.83928852  .00019062  00000-0  12960-2 0  9998","CENTER_NAME":"EARTH","APOAPSIS":"548.073","TLE_LINE2":"2 44724  53.0538 251.0028 0001135  98.0710 262.0408 15.06376052189454","MEAN_MOTION":"15.06376052","EPHEMERIS_TYPE":"0","SEMIMAJOR_AXIS":"6925.422","CLASSIFICATION_TYPE":"U","ELEMENT_SET_NO":"999","RCS_SIZE":"LARGE","PERIOD":"95.594","LAUNCH_DATE":"2019-11-11","INCLINATION":"53.0538","EPOCH":"2023-04-17T20:08:34.528128","MEAN_MOTION_DDOT":"0.0000000000000","REV_AT_EPOCH":"18945","ARG_OF_PERICENTER":"98.0710","COUNTRY_CODE":"US","TIME_SYSTEM":"UTC","MEAN_ELEMENT_THEORY":"SGP4","OBJECT_ID":"2019-074M","BSTAR":"0.00129600000000","MEAN_ANOMALY":"262.0408","ECCENTRICITY":"0.00011350","PERIAPSIS":"546.501","OBJECT_NAME":"STARLINK-1019","FILE":"3889391","GP_ID":"230259911","SITE":"AFETR","OBJECT_TYPE":"PAYLOAD","REF_FRAME":"TEME","NORAD_CAT_ID":"44724","RA_OF_ASC_NODE":"251.0028","DECAY_DATE":null},{"BSTAR":"0.00156660000000","OBJECT_ID":"2019-074N","MEAN_ELEMENT_THEORY":"SGP4","COUNTRY_CODE":"US","TIME_SYSTEM":"UTC","PERIAPSIS":"546.501","ECCENTRICITY":"0.00010720","MEAN_ANOMALY":"264.4317","SITE":"AFETR","OBJECT_TYPE":"PAYLOAD","NORAD_CAT_ID":"44725","REF_FRAME":"TEME","OBJECT_NAME":"STARLINK-1020","GP_ID":"230259161","FILE":"3889391","RA_OF_ASC_NODE":"271.2743","DECAY_DATE":null,"TLE_LINE1":"1 44725U 19074N   23107.77844961  .00023124  00000-0  15666-2 0  9990","MEAN_MOTION_DOT":"0.00023124","APOAPSIS":"547.986","TLE_LINE2":"2 44725  53.0524 271.2743 0001072  95.6794 264.4317 15.06390344189166","MEAN_MOTION":"15.06390344","CENTER_NAME":"EARTH","CLASSIFICATION_TYPE":"U","ELEMENT_SET_NO":"999","SEMIMAJOR_AXIS":"6925.378","EPHEMERIS_TYPE":"0","EPOCH":"2023-04-17T18:40:58.046304","MEAN_MOTION_DDOT":"0.0000000000000","INCLINATION":"53.0524","LAUNCH_DATE":"2019-11-11","REV_AT_EPOCH":"18916","ARG_OF_PERICENTER":"95.6794","PERIOD":"95.593","RCS_SIZE":"LARGE"},{"ARG_OF_PERICENTER":"118.2518","REV_AT_EPOCH":"18943","MEAN_MOTION_DDOT":"0.0000000000000","EPOCH":"2023-04-17T16:52:09.706368","LAUNCH_DATE":"2019-11-11","INCLINATION":"53.0536","RCS_SIZE":"LARGE","PERIOD":"95.593","ELEMENT_SET_NO":"999","CLASSIFICATION_TYPE":"U","SEMIMAJOR_AXIS":"6925.385","EPHEMERIS_TYPE":"0","MEAN_MOTION":"15.06388238","TLE_LINE2":"2 44726  53.0536 251.6163 0001189 118.2518 241.8591 15.06388238189435","APOAPSIS":"548.073","CENTER_NAME":"EARTH","TLE_LINE1":"1 44726U 19074P   23107.70289012  .00037097  00000-0  24971-2 0  9997","MEAN_MOTION_DOT":"0.00037097","DECAY_DATE":null,"RA_OF_ASC_NODE":"251.6163","NORAD_CAT_ID":"44726","REF_FRAME":"TEME","SITE":"AFETR","OBJECT_TYPE":"PAYLOAD","GP_ID":"230259411","FILE":"3889391","OBJECT_NAME":"STARLINK-1021","PERIAPSIS":"546.426","ECCENTRICITY":"0.00011890","MEAN_ANOMALY":"241.8591","BSTAR":"0.00249710000000","OBJECT_ID":"2019-074P","MEAN_ELEMENT_THEORY":"SGP4","COUNTRY_CODE":"US","TIME_SYSTEM":"UTC"},{"MEAN_MOTION":"15.51862283","TLE_LINE2":"2 44727  53.0550 287.8183 0001197  66.4484 192.5632 15.51862283  1304","APOAPSIS":"412.104","CENTER_NAME":"EARTH","TLE_LINE1":"1 44727U 19074Q   23107.91667824  .01440968  00000-0  21488-1 0  9997","MEAN_MOTION_DOT":"0.01440968","REV_AT_EPOCH":"130","ARG_OF_PERICENTER":"66.4484","EPOCH":"2023-04-17T22:00:00.999936","MEAN_MOTION_DDOT":"0.0000000000000","INCLINATION":"53.0550","LAUNCH_DATE":"2019-11-11","PERIOD":"92.792","RCS_SIZE":"LARGE","ELEMENT_SET_NO":"999","CLASSIFICATION_TYPE":"U","SEMIMAJOR_AXIS":"6789.426","EPHEMERIS_TYPE":"0","PERIAPSIS":"410.478","ECCENTRICITY":"0.00011970","MEAN_ANOMALY":"192.5632","BSTAR":"0.02148800000000","OBJECT_ID":"2019-074Q","MEAN_ELEMENT_THEORY":"SGP4","TIME_SYSTEM":"UTC","COUNTRY_CODE":"US","RA_OF_ASC_NODE":"287.8183","DECAY_DATE":null,"NORAD_CAT_ID":"44727","REF_FRAME":"TEME","OBJECT_TYPE":"PAYLOAD","SITE":"AFETR","FILE":"3889391","GP_ID":"230259662","OBJECT_NAME":"STARLINK-1022"},{"MEAN_MOTION_DDOT":"0.0000000000000","EPOCH":"2023-04-17T22:00:00.999936","LAUNCH_DATE":"2019-11-11","INCLINATION":"53.0199","REV_AT_EPOCH":"130","ARG_OF_PERICENTER":"316.8873","PERIOD":"93.498","RCS_SIZE":"LARGE","CLASSIFICATION_TYPE":"U","ELEMENT_SET_NO":"999","SEMIMAJOR_AXIS":"6823.826","EPHEMERIS_TYPE":"0","TLE_LINE2":"2 44729  53.0199 225.9000 0007833 316.8873 207.2772 15.40142159  1303","APOAPSIS":"451.036","MEAN_MOTION":"15.40142159","CENTER_NAME":"EARTH","TLE_LINE1":"1 44729U 19074S   23107.91667824  .00161375  00000-0  38888-2 0  9993","MEAN_MOTION_DOT":"0.00161375","RA_OF_ASC_NODE":"225.9000","DECAY_DATE":null,"OBJECT_TYPE":"PAYLOAD","SITE":"AFETR","NORAD_CAT_ID":"44729","REF_FRAME":"TEME","OBJECT_NAME":"STARLINK-1024","FILE":"3889391","GP_ID":"230260412","PERIAPSIS":"440.346","ECCENTRICITY":"0.00078330","MEAN_ANOMALY":"207.2772","BSTAR":"0.00388880000000","OBJECT_ID":"2019-074S","MEAN_ELEMENT_THEORY":"SGP4","COUNTRY_CODE":"US","TIME_SYSTEM":"UTC"},{"MEAN_ELEMENT_THEORY":"SGP4","COUNTRY_CODE":"US","TIME_SYSTEM":"UTC","BSTAR":"0.00257200000000","OBJECT_ID":"2019-074U","MEAN_ANOMALY":"265.8487","ECCENTRICITY":"0.00010630","PERIAPSIS":"546.404","OBJECT_NAME":"STARLINK-1026","GP_ID":"230258661","FILE":"3889391","SITE":"AFETR","OBJECT_TYPE":"PAYLOAD","NORAD_CAT_ID":"44731","REF_FRAME":"TEME","RA_OF_ASC_NODE":"251.2651","DECAY_DATE":null,"MEAN_MOTION_DOT":"0.00038262","TLE_LINE1":"1 44731U 19074U   23107.78030447  .00038262  00000-0  25720-2 0  9995","CENTER_NAME":"EARTH","APOAPSIS":"547.877","TLE_LINE2":"2 44731  53.0526 251.2651 0001063  94.2623 265.8487 15.06423883189446","MEAN_MOTION":"15.06423883","SEMIMAJOR_AXIS":"6925.275","EPHEMERIS_TYPE":"0","CLASSIFICATION_TYPE":"U","ELEMENT_SET_NO":"999","RCS_SIZE":"LARGE","PERIOD":"95.591","MEAN_MOTION_DDOT":"0.0000000000000","EPOCH":"2023-04-17T18:43:38.306208","INCLINATION":"53.0526","LAUNCH_DATE":"2019-11-11","ARG_OF_PERICENTER":"94.2623","REV_AT_EPOCH":"18944"},{"PERIAPSIS":"546.556","ECCENTRICITY":"0.00008360","MEAN_ANOMALY":"261.1907","OBJECT_ID":"2019-074V","BSTAR":"0.00203340000000","COUNTRY_CODE":"US","TIME_SYSTEM":"UTC","MEAN_ELEMENT_THEORY":"SGP4","RA_OF_ASC_NODE":"271.0264","DECAY_DATE":null,"OBJECT_TYPE":"PAYLOAD","SITE":"AFETR","REF_FRAME":"TEME","NORAD_CAT_ID":"44732","OBJECT_NAME":"STARLINK-1027","FILE":"3889391","GP_ID":"230258911","APOAPSIS":"547.714","TLE_LINE2":"2 44732  53.0523 271.0264 0000836  98.9176 261.1907 15.06425542189175","MEAN_MOTION":"15.06425542","CENTER_NAME":"EARTH","TLE_LINE1":"1 44732U 19074V   23107.83374436  .00030157  00000-0  20334-2 0  9992","MEAN_MOTION_DOT":"0.00030157","LAUNCH_DATE":"2019-11-11","INCLINATION":"53.0523","MEAN_MOTION_DDOT":"0.0000000000000","EPOCH":"2023-04-17T20:00:35.512704","REV_AT_EPOCH":"18917","ARG_OF_PERICENTER":"98.9176","PERIOD":"95.591","RCS_SIZE":"LARGE","CLASSIFICATION_TYPE":"U","ELEMENT_SET_NO":"999","EPHEMERIS_TYPE":"0","SEMIMAJOR_AXIS":"6925.270"},{"TLE_LINE1":"1 44733U 19074W   23107.69921196  .00044173  00000-0  29614-2 0  9991","MEAN_MOTION_DOT":"0.00044173","APOAPSIS":"547.712","TLE_LINE2":"2 44733  53.0534 251.6319 0000968  88.8834 271.2266 15.06455975189430","MEAN_MOTION":"15.06455975","CENTER_NAME":"EARTH","CLASSIFICATION_TYPE":"U","ELEMENT_SET_NO":"999","SEMIMAJOR_AXIS":"6925.177","EPHEMERIS_TYPE":"0","MEAN_MOTION_DDOT":"0.0000000000000","EPOCH":"2023-04-17T16:46:51.913344","LAUNCH_DATE":"2019-11-11","INCLINATION":"53.0534","REV_AT_EPOCH":"18943","ARG_OF_PERICENTER":"88.8834","PERIOD":"95.589","RCS_SIZE":"LARGE","BSTAR":"0.00296140000000","OBJECT_ID":"2019-074W","MEAN_ELEMENT_THEORY":"SGP4","TIME_SYSTEM":"UTC","COUNTRY_CODE":"US","ECCENTRICITY":"0.00009680","PERIAPSIS":"546.372","MEAN_ANOMALY":"271.2266","SITE":"AFETR","OBJECT_TYPE":"PAYLOAD","NORAD_CAT_ID":"44733","REF_FRAME":"TEME","OBJECT_NAME":"STARLINK-1028","GP_ID":"230260163","FILE":"3889391","DECAY_DATE":null,"RA_OF_ASC_NODE":"251.6319"},{"TLE_LINE1":"1 44734U 19074X   23107.58126228  .00031383  00000-0  21173-2 0  9994","MEAN_MOTION_DOT":"0.00031383","MEAN_MOTION":"15.06383797","APOAPSIS":"548.550","TLE_LINE2":"2 44734  53.0533 172.1628 0001858  45.4390 314.6750 15.06383797190518","CENTER_NAME":"EARTH","ELEMENT_SET_NO":"999","CLASSIFICATION_TYPE":"U","SEMIMAJOR_AXIS":"6925.398","EPHEMERIS_TYPE":"0","REV_AT_EPOCH":"19051","ARG_OF_PERICENTER":"45.4390","EPOCH":"2023-04-17T13:57:01.060992","MEAN_MOTION_DDOT":"0.0000000000000","LAUNCH_DATE":"2019-11-11","INCLINATION":"53.0533","RCS_SIZE":"LARGE","PERIOD":"95.593","BSTAR":"0.00211730000000","OBJECT_ID":"2019-074X","MEAN_ELEMENT_THEORY":"SGP4","COUNTRY_CODE":"US","TIME_SYSTEM":"UTC","PERIAPSIS":"545.976","ECCENTRICITY":"0.00018580","MEAN_ANOMALY":"314.6750","NORAD_CAT_ID":"44734","REF_FRAME":"TEME","OBJECT_TYPE":"PAYLOAD","SITE":"AFETR","FILE":"3889215","GP_ID":"230228772","OBJECT_NAME":"STARLINK-1029","RA_OF_ASC_NODE":"172.1628","DECAY_DATE":null},{"ECCENTRICITY":"0.00013860","PERIAPSIS":"546.139","MEAN_ANOMALY":"302.8857","OBJECT_ID":"2019-074Y","BSTAR":"0.00234510000000","TIME_SYSTEM":"UTC","COUNTRY_CODE":"US","MEAN_ELEMENT_THEORY":"SGP4","RA_OF_ASC_NODE":"270.9948","DECAY_DATE":null,"OBJECT_TYPE":"PAYLOAD","SITE":"AFETR","REF_FRAME":"TEME","NORAD_CAT_ID":"44735","OBJECT_NAME":"STARLINK-1030","FILE":"3889391","GP_ID":"230259162","TLE_LINE2":"2 44735  53.0531 270.9948 0001386  57.2265 302.8857 15.06437442189171","APOAPSIS":"548.059","MEAN_MOTION":"15.06437442","CENTER_NAME":"EARTH","TLE_LINE1":"1 44735U 19074Y   23107.84111522  .00034857  00000-0  23451-2 0  9995","MEAN_MOTION_DOT":"0.00034857","LAUNCH_DATE":"2019-11-11","INCLINATION":"53.0531","EPOCH":"2023-04-17T20:11:12.355008","MEAN_MOTION_DDOT":"0.0000000000000","ARG_OF_PERICENTER":"57.2265","REV_AT_EPOCH":"18917","PERIOD":"95.590","RCS_SIZE":"LARGE","CLASSIFICATION_TYPE":"U","ELEMENT_SET_NO":"999","EPHEMERIS_TYPE":"0","SEMIMAJOR_AXIS":"6925.234"}];
